H1 CPF 01  gfz 2021 11 25 13  8292 terrasarx 
H2 0702601  6201 31698    2021 11 25 12 59 42 2021 11 30 00 00 42   120 1 1  0 0 0
H9
10 0 59547  15822.000000  0   -4112792.489  -2573042.784  -4898081.765
10 0 59547  15942.000000  0   -4727501.865  -2703947.703  -4226137.030
10 0 59547  16062.000000  0   -5261749.246  -2777752.356  -3480138.684
10 0 59547  16182.000000  0   -5705142.805  -2794619.523  -2673093.627
10 0 59547  16302.000000  0   -6048873.661  -2755872.889  -1819111.298
10 0 59547  16422.000000  0   -6285900.454  -2663950.056   -933158.184
10 0 59547  16542.000000  0   -6411102.294  -2522331.940    -30792.801
10 0 59547  16662.000000  0   -6421395.073  -2335449.951    872113.165
10 0 59547  16782.000000  0   -6315808.366  -2108573.133   1759662.555
10 0 59547  16902.000000  0   -6095518.210  -1847677.973   2616222.654
10 0 59547  17022.000000  0   -5763836.192  -1559304.246   3426708.353
10 0 59547  17142.000000  0   -5326156.870  -1250400.808   4176855.470
10 0 59547  17262.000000  0   -4789860.734   -928164.720   4853476.372
10 0 59547  17382.000000  0   -4164180.441   -599879.098   5444690.711
10 0 59547  17502.000000  0   -3460034.053   -272753.188   5940132.298
10 0 59547  17622.000000  0   -2689825.768     46232.966   6331127.423
10 0 59547  17742.000000  0   -1867219.818    350474.354   6610840.673
10 0 59547  17862.000000  0   -1006893.173    633874.178   6774388.025
10 0 59547  17982.000000  0    -124271.727    890964.063   6818916.447
10 0 59547  18102.000000  0     764745.954   1117008.211   6743649.975
10 0 59547  18222.000000  0    1644073.801   1308090.450   6549902.526
10 0 59547  18342.000000  0    2497728.300   1461182.444   6241056.235
10 0 59547  18462.000000  0    3310118.663   1574191.667   5822506.746
10 0 59547  18582.000000  0    4066334.184   1645988.826   5301574.414
10 0 59547  18702.000000  0    4752420.823   1676414.251   4687381.951
10 0 59547  18822.000000  0    5355645.182   1666264.080   3990702.528
10 0 59547  18942.000000  0    5864741.763   1617255.035   3223773.998
10 0 59547  19062.000000  0    6270131.353   1531968.743   2400083.575
10 0 59547  19182.000000  0    6564111.084   1413776.136   1534130.329
10 0 59547  19302.000000  0    6741009.033   1266744.742    641164.330
10 0 59547  19422.000000  0    6797298.607   1095530.626   -263088.713
10 0 59547  19542.000000  0    6731671.202    905257.531  -1162713.727
10 0 59547  19662.000000  0    6545061.853    701385.809  -2041895.382
10 0 59547  19782.000000  0    6240631.022    489574.767  -2885202.905
10 0 59547  19902.000000  0    5823702.200    275543.161  -3677866.223
10 0 59547  20022.000000  0    5301657.362     64930.667  -4406037.162
10 0 59547  20142.000000  0    4683792.267   -136836.273  -5057029.453
10 0 59547  20262.000000  0    3981138.610   -324670.580  -5619532.738
10 0 59547  20382.000000  0    3206258.018   -493940.240  -6083800.581
10 0 59547  20502.000000  0    2373010.082   -640571.897  -6441809.700
10 0 59547  20622.000000  0    1496300.556   -761139.230  -6687386.273
10 0 59547  20742.000000  0     591816.247   -852936.140  -6816302.261
10 0 59547  20862.000000  0    -324252.575   -914032.477  -6826340.829
10 0 59547  20982.000000  0   -1235495.615   -943311.779  -6717329.376
10 0 59547  21102.000000  0   -2125569.730   -940491.149  -6491142.802
10 0 59547  21222.000000  0   -2978485.856   -906122.341  -6151673.632
10 0 59547  21342.000000  0   -3778889.512   -841574.715  -5704772.011
10 0 59547  21462.000000  0   -4512335.893   -749000.107  -5158156.584
10 0 59547  21582.000000  0   -5165553.027   -631279.546  -4521292.009
10 0 59547  21702.000000  0   -5726687.429   -491953.501  -3805236.563
10 0 59547  21822.000000  0   -6185529.423   -335136.137  -3022459.955
10 0 59547  21942.000000  0   -6533710.763   -165414.549  -2186632.198
10 0 59547  22062.000000  0   -6764870.573     12263.595  -1312388.326
10 0 59547  22182.000000  0   -6874785.448    192713.377   -415070.394
10 0 59547  22302.000000  0   -6861455.609    370642.375    489548.422
10 0 59547  22422.000000  0   -6725147.054    540784.210   1385547.340
10 0 59547  22542.000000  0   -6468390.097    698032.044   2257146.596
10 0 59547  22662.000000  0   -6095931.552    837568.822   3088994.822
10 0 59547  22782.000000  0   -5614641.372    954990.926   3866447.720
10 0 59547  22902.000000  0   -5033376.973   1046421.831   4575830.885
10 0 59547  23022.000000  0   -4362810.165   1108613.042   5204682.114
10 0 59547  23142.000000  0   -3615221.401   1139029.776   5741968.672
10 0 59547  23262.000000  0   -2804266.560   1135920.056   6178277.757
10 0 59547  23382.000000  0   -1944720.109   1098365.472   6505977.294
10 0 59547  23502.000000  0   -1052199.411   1026313.404   6719343.269
10 0 59547  23622.000000  0    -142878.257    920589.071   6814652.406
10 0 59547  23742.000000  0     766805.817    782887.848   6790242.416
10 0 59547  23862.000000  0    1660447.289    615748.090   6646539.037
10 0 59547  23982.000000  0    2521967.108    422504.953   6386049.288
10 0 59547  24102.000000  0    3335901.676    207225.547   6013321.597
10 0 59547  24222.000000  0    4087682.726    -25373.874   5534871.451
10 0 59547  24342.000000  0    4763901.799   -270027.146   4959073.305
10 0 59547  24462.000000  0    5352555.571   -521031.862   4296019.997
10 0 59547  24582.000000  0    5843267.366   -772375.866   3557350.949
10 0 59547  24702.000000  0    6227480.742  -1017873.591   2756050.609
10 0 59547  24822.000000  0    6498618.819  -1251309.332   1906219.123
10 0 59547  24942.000000  0    6652204.744  -1466583.099   1022820.379
10 0 59547  25062.000000  0    6685941.913  -1657857.434    121413.332
10 0 59547  25182.000000  0    6599751.018  -1819700.872   -782131.151
10 0 59547  25302.000000  0    6395760.240  -1947222.427  -1671918.896
10 0 59547  25422.000000  0    6078251.984  -2036195.549  -2532320.602
10 0 59547  25542.000000  0    5653565.713  -2083167.472  -3348252.708
10 0 59547  25662.000000  0    5129961.636  -2085551.603  -4105444.428
10 0 59547  25782.000000  0    4517449.896  -2041700.976  -4790686.851
10 0 59547  25902.000000  0    3827588.465  -1950961.693  -5392059.907
10 0 59547  26022.000000  0    3073254.786  -1813705.191  -5899131.866
10 0 59547  26142.000000  0    2268399.334  -1631338.599  -6303129.259
10 0 59547  26262.000000  0    1427785.508  -1406293.612  -6597078.769
10 0 59547  26382.000000  0     566718.111  -1141994.306  -6775916.820
10 0 59547  26502.000000  0    -299231.838   -842805.379  -6836567.256
10 0 59547  26622.000000  0   -1154502.825   -513960.891  -6777987.990
10 0 59547  26742.000000  0   -1983816.113   -161474.728  -6601187.243
10 0 59547  26862.000000  0   -2772442.659    207966.751  -6309206.997
10 0 59547  26982.000000  0   -3506458.688    587127.264  -5907076.057
10 0 59547  27102.000000  0   -4172989.329    968357.828  -5401733.513
10 0 59547  27222.000000  0   -4760436.173   1343745.813  -4801919.859
10 0 59547  27342.000000  0   -5258684.854   1705275.169  -4118038.400
10 0 59547  27462.000000  0   -5659287.714   2044994.329  -3361984.153
10 0 59547  27582.000000  0   -5955617.171   2355186.814  -2546944.900
10 0 59547  27702.000000  0   -6142987.155   2628542.126  -1687175.820
10 0 59547  27822.000000  0   -6218738.167   2858322.923   -797750.758
10 0 59547  27942.000000  0   -6182283.286   3038523.994    105705.472
10 0 59547  28062.000000  0   -6035112.390   3164018.203   1007298.934
10 0 59547  28182.000000  0   -5780753.216   3230685.922   1891154.890
10 0 59547  28302.000000  0   -5424691.328   3235524.292   2741706.322
10 0 59547  28422.000000  0   -4974251.209   3176733.631   3543975.973
10 0 59547  28542.000000  0   -4438441.239   3053778.255   4283847.006
10 0 59547  28662.000000  0   -3827766.363   2867420.296   4948314.536
10 0 59547  28782.000000  0   -3154015.307   2619727.078   5525714.018
10 0 59547  28902.000000  0   -2430025.959   2314052.181   6005924.613
10 0 59547  29022.000000  0   -1669433.919   1954989.479   6380542.107
10 0 59547  29142.000000  0    -886410.437   1548302.023   6643019.534
10 0 59547  29262.000000  0     -95396.755   1100827.446   6788774.035
10 0 59547  29382.000000  0     689161.604    620361.662   6815261.858
10 0 59547  29502.000000  0    1453077.694    115523.076   6722019.683
10 0 59547  29622.000000  0    2182678.294   -404401.100   6510672.505
10 0 59547  29742.000000  0    2865047.985   -929625.089   6184908.076
10 0 59547  29862.000000  0    3488259.165  -1450047.539   5750417.391
10 0 59547  29982.000000  0    4041584.292  -1955445.437   5214800.918
10 0 59547  30102.000000  0    4515684.737  -2435674.822   4587441.030
10 0 59547  30222.000000  0    4902774.761  -2880875.229   3879344.189
10 0 59547  30342.000000  0    5196757.650  -3281674.338   3102951.656
10 0 59547  30462.000000  0    5393328.849  -3629386.524   2271920.420
10 0 59547  30582.000000  0    5490042.532  -3916201.237   1400880.517
10 0 59547  30702.000000  0    5486341.777  -4135357.492    505172.654
10 0 59547  30822.000000  0    5383550.597  -4281298.087   -399429.210
10 0 59547  30942.000000  0    5184828.016  -4349801.301  -1297004.519
10 0 59547  31062.000000  0    4895084.574  -4338084.795  -2171775.396
10 0 59547  31182.000000  0    4520863.783  -4244879.983  -3008391.528
10 0 59547  31302.000000  0    4070192.440  -4070475.549  -3792204.279
10 0 59547  31422.000000  0    3552403.575  -3816728.721  -4509524.668
10 0 59547  31542.000000  0    2977937.444  -3487045.453  -5147859.850
10 0 59547  31662.000000  0    2358125.504  -3086330.203  -5696124.122
10 0 59547  31782.000000  0    1704963.921  -2620908.061  -6144820.978
10 0 59547  31902.000000  0    1030880.978  -2098421.586  -6486197.934
10 0 59547  32022.000000  0     348500.774  -1527701.533  -6714370.771
10 0 59547  32142.000000  0    -329590.456   -918616.027  -6825414.108
10 0 59547  32262.000000  0    -991071.222   -281901.569  -6817420.520
99
